STARLINK-32374          
1 62145U 24224G   26068.26300344  .00035289  00000+0  12854-2 0  9994
2 62145  43.0000 160.6086 0002018 256.0897 103.9730 15.27589886 72418
FLOCK 4G-5              
1 62663U 25009BG  26068.45638436  .00011278  00000+0  40688-3 0  9997
2 62663  97.4058 151.2478 0002094 314.5072  45.5996 15.28679529 63699
